sat_config_name,tle_name,norad_id,horizons_id,epoch_tle,t_obs,delta_t_min,incl_deg,raan_deg,ecc,argp_deg,M_deg,mean_motion_rev_per_day,x_sgp4,y_sgp4,z_sgp4,vx_sgp4,vy_sgp4,vz_sgp4,x_true,y_true,z_true,vx_true,vy_true,vz_true,err_x,err_y,err_z,err_vx,err_vy,err_vz,err_norm,horizons_ok,line1,line2
CHANDRA,CXO,25867,-151,2025-11-29T09:28:09.054336+00:00,2025-11-28T17:38:09.054336+00:00,-950.0,52.7584,123.0489,0.8164697,310.7158,0.2585,0.37803381,23751.83270618908,-107171.57746085284,49864.432986806845,0.4188787087864147,0.73074675179363,-0.9844472872501212,23761.191667530038,-107164.83241883795,49848.28886046475,0.4181786764315726,0.7315256861346783,-0.9847642264464115,-9.35896134095674,-6.745042014896171,16.14412634209293,0.0007000323548421172,-0.0007789343410482541,0.0003169391962902779,19.842342717373274,True,1 25867U 99040B   25333.39454924  .00000722  00000+0  00000+0 0  9995,2 25867  52.7584 123.0489 8164697 310.7158   0.2585  0.37803381 16565
CHANDRA,CXO,25867,-151,2025-11-29T09:28:09.054336+00:00,2025-11-28T17:43:09.054336+00:00,-945.0,52.7584,123.0489,0.8164697,310.7158,0.2585,0.37803381,23877.16485834197,-106951.11902209383,49568.42334440018,0.4172485616041751,0.7380812534582817,-0.9878551123044538,23886.40107296715,-106944.27539757117,49552.348541877866,0.41654732876578976,0.7388609647597805,-0.9881721215577495,-9.236214625179855,-6.8436245226621395,16.074802522314712,0.0007012328383853572,-0.0007797113014987866,0.00031700925329569696,19.762138885783195,True,1 25867U 99040B   25333.39454924  .00000722  00000+0  00000+0 0  9995,2 25867  52.7584 123.0489 8164697 310.7158   0.2585  0.37803381 16565
CHANDRA,CXO,25867,-151,2025-11-29T09:28:09.054336+00:00,2025-11-28T17:48:09.054336+00:00,-940.0,52.7584,123.0489,0.8164697,310.7158,0.2585,0.37803381,24002.005013446724,-106728.45355685089,49271.38977862007,0.41559776158820566,0.7454545354184571,-0.9912675797863292,24011.117992828444,-106721.51197765149,49255.38514299151,0.4148953393409417,0.7462350041619211,-0.9915846463003222,-9.112979381719924,-6.941579199396074,16.00463562856021,0.0007024222472639674,-0.0007804687434640467,0.0003170665139929918,19.681978472605834,True,1 25867U 99040B   25333.39454924  .00000722  00000+0  00000+0 0  9995,2 25867  52.7584 123.0489 8164697 310.7158   0.2585  0.37803381 16565
CHANDRA,CXO,25867,-151,2025-11-29T09:28:09.054336+00:00,2025-11-28T17:53:09.054336+00:00,-935.0,52.7584,123.0489,0.8164697,310.7158,0.2585,0.37803381,24126.346930883123,-106503.56934521801,48973.33088977487,0.413926015961545,0.752867110123135,-0.9946847290294892,24135.336201838458,-106496.53043377666,48957.39724224657,0.4132224153129903,0.7536483172389582,-0.9950018402253988,-8.989270955335087,-7.038911441355594,15.9336475283053,0.0007036006485546809,-0.0007812071158231904,0.0003171111959096029,19.601897615892888,True,1 25867U 99040B   25333.39454924  .00000722  00000+0  00000+0 0  9995,2 25867  52.7584 123.0489 8164697 310.7158   0.2585  0.37803381 16565
CHANDRA,CXO,25867,-151,2025-11-29T09:28:09.054336+00:00,2025-11-28T17:58:09.054336+00:00,-930.0,52.7584,123.0489,0.8164697,310.7158,0.2585,0.37803381,24250.184281247362,-106276.45451210813,48674.24526644687,0.4122330257583728,0.7603194989714619,-0.9981065988613766,24259.049330128044,-106269.31898781251,48658.38354110316,0.41152825841157287,0.7611014224795603,-0.9984237408355621,-8.86504888068157,-7.135524295619689,15.861725343711441,0.0007047673467999171,-0.0007819235080983589,0.0003171419741854198,19.521760410106214,True,1 25867U 99040B   25333.39454924  .00000722  00000+0  00000+0 0  9995,2 25867  52.7584 123.0489 8164697 310.7158   0.2585  0.37803381 16565
CHANDRA,CXO,25867,-151,2025-11-29T09:28:09.054336+00:00,2025-11-28T18:03:09.054336+00:00,-925.0,52.7584,123.0489,0.8164697,310.7158,0.2585,0.37803381,24373.510644450613,-106047.0970245394,48374.13148564818,0.41051848566295923,0.7678122325213553,-1.001533227572582,24382.251004819187,-106039.86554423648,48358.342518614525,0.40981256282836737,0.7685948527784052,-1.0018503875121954,-8.74036036857433,-7.231480302914861,15.788967033651716,0.0007059228345918656,-0.000782620257049893,0.0003171599396134539,19.441699687366096,True,1 25867U 99040B   25333.39454924  .00000722  00000+0  00000+0 0  9995,2 25867  52.7584 123.0489 8164697 310.7158   0.2585  0.37803381 16565
CHANDRA,CXO,25867,-151,2025-11-29T09:28:09.054336+00:00,2025-11-28T18:08:09.054336+00:00,-920.0,52.7584,123.0489,0.8164697,310.7158,0.2585,0.37803381,24496.319507814067,-105815.4846888481,48072.98811298762,0.4087820838431646,0.7753458507042058,-1.0049646528848093,24504.93468466794,-105808.15798678546,48057.272826080625,0.40807501728333195,0.7761291458202895,-1.0052818169678768,-8.615176853872981,-7.326702062637196,15.71528690699779,0.0007070665598326586,-0.0007832951160836599,0.00031716408306747823,19.361613515082286,True,1 25867U 99040B   25333.39454924  .00000722  00000+0  00000+0 0  9995,2 25867  52.7584 123.0489 8164697 310.7158   0.2585  0.37803381 16565
CHANDRA,CXO,25867,-151,2025-11-29T09:28:09.054336+00:00,2025-11-28T18:13:09.054336+00:00,-915.0,52.7584,123.0489,0.8164697,310.7158,0.2585,0.37803381,24618.60426408203,-105581.60514784239,47770.813702845786,0.40702350177881746,0.7829209030456347,-1.0084009119173059,24627.09380000838,-105574.18391187981,47755.172942006815,0.4063153028818152,0.7837048529201754,-1.0087180671567497,-8.489535926350072,-7.421235962581704,15.640760838970891,0.0007081988970022435,-0.0007839498745407791,0.00031715523944386703,19.28160685936185,True,1 25867U 99040B   25333.39454924  .00000722  00000+0  00000+0 0  9995,2 25867  52.7584 123.0489 8164697 310.7158   0.2585  0.37803381 16565
CHANDRA,CXO,25867,-151,2025-11-29T09:28:09.054336+00:00,2025-11-28T18:18:09.054336+00:00,-910.0,52.7584,123.0489,0.8164697,310.7158,0.2585,0.37803381,24740.358209367725,-105345.44587789287,47467.60679856139,0.40524241408468575,0.7905379488925325,-1.011842041151672,24748.721618854906,-105337.93087477326,47452.04149590035,0.404533094804926,0.791322531151644,-1.0121591735507014,-8.363409487181343,-7.515003119609901,15.56530266104528,0.000709319279759757,-0.0007845822591114882,0.00031713239902941837,19.20157642142865,True,1 25867U 99040B   25333.39454924  .00000722  00000+0  00000+0 0  9995,2 25867  52.7584 123.0489 8164697 310.7158   0.2585  0.37803381 16565
CHANDRA,CXO,25867,-151,2025-11-29T09:28:09.054336+00:00,2025-11-28T18:23:09.054336+00:00,-905.0,52.7584,123.0489,0.8164697,310.7158,0.2585,0.37803381,24861.574541092534,-105106.99418594367,47163.365932628694,0.4034384883273551,0.7981975576468611,-1.0152880763949699,24869.811359738756,-105099.3861675602,47147.87698504629,0.402728060481354,0.798982750682592,-1.0156051723288766,-8.236818646222673,-7.608018383471062,15.488947582402034,0.000710427846001116,-0.0007851930357308801,0.0003170959339067192,19.121574787249948,True,1 25867U 99040B   25333.39454924  .00000722  00000+0  00000+0 0  9995,2 25867  52.7584 123.0489 8164697 310.7158   0.2585  0.37803381 16565
CHANDRA,CXO,25867,-151,2025-11-29T09:28:09.054336+00:00,2025-11-28T18:28:09.054336+00:00,-900.0,52.7584,123.0489,0.8164697,310.7158,0.2585,0.37803381,24982.24635581832,-104866.23720646248,46858.089626905,0.40161138483653186,0.8059003090060723,-1.0187390527410716,24990.356140219355,-104858.53690862806,46842.6778953189,0.4008998600909305,0.8066860920012028,-1.0190560989629283,-8.10978440103645,-7.700297834424418,15.411731586100359,0.0007115247456013774,-0.0007857829951304351,0.0003170462218566872,19.041655922007912,True,1 25867U 99040B   25333.39454924  .00000722  00000+0  00000+0 0  9995,2 25867  52.7584 123.0489 8164697 310.7158   0.2585  0.37803381 16565
CHANDRA,CXO,25867,-151,2025-11-29T09:28:09.054336+00:00,2025-11-28T18:33:09.054336+00:00,-895.0,52.7584,123.0489,0.8164697,310.7158,0.2585,0.37803381,25102.366647072973,-104623.16189830721,46551.77639283147,0.3997607565097785,0.8136467932107421,-1.0221950045301342,25110.348926340142,-104615.37013815077,46536.44282524267,0.3990481471214148,0.8144331430278535,-1.0225119867804362,-7.9822792671693605,-7.791760156440432,15.333567588793812,0.0007126093883637052,-0.0007863498171114536,0.00031698225030196703,18.96171415338504,True,1 25867U 99040B   25333.39454924  .00000722  00000+0  00000+0 0  9995,2 25867  52.7584 123.0489 8164697 310.7158   0.2585  0.37803381 16565
CHANDRA,CXO,25867,-151,2025-11-29T09:28:09.054336+00:00,2025-11-28T18:38:09.054336+00:00,-890.0,52.7584,123.0489,0.8164697,310.7158,0.2585,0.37803381,25221.928303068256,-104377.75504152763,46244.42473166549,0.3978862486111911,0.8214376112993131,-1.025655965306126,25229.782643426734,-104369.87258785359,46229.17019916695,0.39717256644174515,0.82222450662108,-1.0259728701658712,-7.854340358477202,-7.882453674043063,15.254532498540357,0.0007136821694459505,-0.0007868953217669006,0.0003169048597453372,18.881856374288592,True,1 25867U 99040B   25333.39454924  .00000722  00000+0  00000+0 0  9995,2 25867  52.7584 123.0489 8164697 310.7158   0.2585  0.37803381 16565
CHANDRA,CXO,25867,-151,2025-11-29T09:28:09.054336+00:00,2025-11-28T18:43:09.054336+00:00,-885.0,52.7584,123.0489,0.8164697,310.7158,0.2585,0.37803381,25340.92410437938,-104130.00323408404,45936.03313472635,0.3959874985632334,0.8292733753704672,-1.0291219677723153,25348.650045010687,-104122.03093868338,45920.85859612635,0.39527275608118695,0.8300607925263133,-1.0294387808077443,-7.725940631306003,-7.972295400657458,15.174538599996595,0.0007147424820464487,-0.0007874171558460707,0.00031681303542896444,18.801975276991396,True,1 25867U 99040B   25333.39454924  .00000722  00000+0  00000+0 0  9995,2 25867  52.7584 123.0489 8164697 310.7158   0.2585  0.37803381 16565
